satname,norad_id,inclination_deg,eccentricity,mean_motion_rev_per_day,perigee_km,apogee_km,l1,l2
STARLINK-1008,44714,53.1588,0.0001323,15.31044074,471.7896093281306,473.6023397331919,1 44714U 19074B   26066.61750089 -.00000545  00000+0 -60159-5 0  9998,2 44714  53.1588 188.3992 0001323  94.6243 265.4909 15.31044074348558
STARLINK-1012,44718,53.1616,0.0001311,15.30201342,474.31258852116207,476.1095363831373,1 44718U 19074F   26066.59677810  .00002627  00000+0  10078-3 0  9993,2 44718  53.1616 188.5300 0001311  68.1130 292.0010 15.30201342348547
STARLINK-1017,44723,53.0559,9.55e-05,15.23925454,493.35769408452416,494.6702749225651,1 44723U 19074L   26066.57611629  .00048869  00000+0  19965-2 0  9994,2 44723  53.0559 181.2134 0000955  76.5844 283.5259 15.23925454348641
STARLINK-1019,44724,53.0417,0.0001484,15.80715068,327.42205726195243,329.41256258113754,1 44724U 19074M   26066.66668981  .00209650  00000+0  10476-2 0  9993,2 44724  53.0417 146.8815 0001484 196.9217 235.7353 15.80715068  5989
STARLINK-1020,44725,53.1617,0.0001149,15.30201032,474.42453825634675,475.9994378538022,1 44725U 19074N   26066.64415424  .00003582  00000+0  13299-3 0  9997,2 44725  53.1617 213.3481 0001149  92.2433 267.8700 15.30201032348199
STARLINK-1031,44736,53.0382,0.0004868,15.89709551,299.8441110645199,306.34896003473114,1 44736U 19074Z   26066.66668981  .00276308  00000+0  88764-3 0  9996,2 44736  53.0382 130.3537 0004868 355.1944 232.0180 15.89709551  6008
STARLINK-1036,44741,53.0516,0.0002832,15.55432593,398.9756043770112,402.8152483433014,1 44741U 19074AE  26066.62128759  .00134432  00000+0  19127-2 0  9999,2 44741  53.0516 198.5609 0002832 268.9458  91.1227 15.55432593348400
STARLINK-1039,44744,53.05,0.0003925,15.21443543,498.78533565869293,504.18583938990014,1 44744U 19074AH  26066.64489075  .00061946  00000+0  27139-2 0  9996,2 44744  53.0500 224.4907 0003925 170.4237 189.6834 15.21443543348049
STARLINK-1042,44747,53.043,0.0001937,15.49672345,416.3674663062802,419.0001672907083,1 44747U 19074AL  26066.39625998  .00032890  00000+0  58931-3 0  9998,2 44747  53.0430 105.7962 0001937 110.6780 249.4436 15.49672345349718
STARLINK-1043,44748,53.0535,0.000223,15.53498289,405.0084551747759,408.0344128363431,1 44748U 19074AM  26066.59929271  .00043008  00000+0  66930-3 0  9993,2 44748  53.0535 204.5840 0002230  88.6629 271.4635 15.53498289348321
STARLINK-1046,44751,53.0539,0.0005799,15.43396862,432.1410809809504,440.0442245322165,1 44751U 19074AQ  26066.60313594  .00046508  00000+0  10277-2 0  9994,2 44751  53.0539 220.7645 0005799 168.7848 191.3288 15.43396862348099
STARLINK-1047,44752,53.0694,0.0002455,15.3252562,466.5991745746751,469.9607653069161,1 44752U 19074AR  26066.53989776  .00013931  00000+0  44818-3 0  9991,2 44752  53.0694 156.0508 0002455 193.7525 166.3409 15.32525620349011
STARLINK-1048,44753,53.0537,5.23e-05,15.53098914,407.32958953753587,408.03938646518054,1 44753U 19074AS  26066.59092078  .00120121  00000+0  18651-2 0  9993,2 44753  53.0537 178.9645 0000523 170.0769 190.0251 15.53098914348679
STARLINK-1053,44758,53.0267,0.0007527,15.90779556,295.07349464578783,305.12691293237276,1 44758U 19074AX  26066.66668981  .00298318  44104-4  94281-3 0  9994,2 44758  53.0267  93.7673 0007527  47.2451 302.9342 15.90779556  6016
STARLINK-1063,44768,53.1606,0.0004048,15.29661371,474.04890229633384,479.59867855226184,1 44768U 19074BH  26066.59686187 -.00737676  00000+0 -27151-1 0  9994,2 44768  53.1606 229.1154 0004048 133.7053 226.4284 15.29661371347995
STARLINK-1067,44771,53.0505,0.0003253,15.57186719,393.59998400695804,398.00710972675006,1 44771U 19074BL  26066.66668981  .00147189  00000+0  19586-2 0  9994,2 44771  53.0505 213.9888 0003253 327.5058 177.9526 15.57186719  5872
STARLINK-1068,44772,53.0475,0.00027,15.63168916,376.68577555611864,380.3343649740609,1 44772U 19074BM  26066.66668981  .00176430  00000+0  18606-2 0  9998,2 44772  53.0475 189.7955 0002700 280.2635 224.3057 15.63168916  5946
STARLINK-1112,44925,53.0314,0.0006309,16.12558597,235.6583913226532,244.00894671282003,1 44925U 20001M   26066.67699596  .01125368  82524-3  98902-3 0  9995,2 44925  53.0314 251.3238 0006309 290.2813  69.7543 16.12558597341000
STARLINK-1114,44927,53.0507,0.000848,15.49822069,411.4836412934237,423.0086110754328,1 44927U 20001P   26066.61583386  .00093694  00000+0  16405-2 0  9997,2 44927  53.0507 339.3186 0008480 110.1951 249.9970 15.49822069339774
STARLINK-1123,44930,53.1499,0.0001536,15.2811091,480.4061867186938,482.5134548620408,1 44930U 20001S   26066.66668981  .00073067  00000+0  26174-2 0  9997,2 44930  53.1499 354.4776 0001536  80.1953 234.0976 15.28110910  5666
STARLINK-1094,44941,53.1626,0.0001135,15.30227212,474.3559742582529,475.91166673450607,1 44941U 20001AD  26066.00556399 -.00006731  00000+0 -21517-3 0  9999,2 44941  53.1626 332.0294 0001135  84.0579 276.0552 15.30227212339820
STARLINK-1122,44949,53.1609,0.0001248,15.30201278,474.3559556822984,476.06655140638395,1 44949U 20001AM  26066.03191441  .00004177  00000+0  15308-3 0  9994,2 44949  53.1609 331.9550 0001248  95.7700 264.3443 15.30201278339825
STARLINK-1080,44961,53.0528,0.0007834,15.46688182,421.0915041443659,431.7528874923737,1 44961U 20001AZ  26066.03207279  .00093498  00000+0  18265-2 0  9993,2 44961  53.0528 300.8885 0007834 113.6127 246.5703 15.46688182340265
STARLINK-1090,44968,53.0966,0.0001728,15.16566677,515.0350117403732,517.4177037168047,1 44968U 20001BG  26066.66668981  .01280505  00000+0  59908-1 0  9996,2 44968  53.0966 315.4935 0001728 111.5880 163.2373 15.16566677  5699
STARLINK-1132,45044,53.1563,0.0004492,15.43318305,433.26283066728683,439.384942327717,1 45044U 20006A   26066.58546265  .00042512  00000+0  94341-3 0  9993,2 45044  53.1563 263.9295 0004492 184.7445 175.3520 15.43318305336604
STARLINK-1131,45047,53.1592,0.000123,15.30193623,474.39114541145045,476.07707470452533,1 45047U 20006D   26066.05338931  .00000656  00000+0  34269-4 0  9994,2 45047  53.1592 293.2258 0001230  94.7938 265.3203 15.30193623336145
STARLINK-1134,45048,53.0348,0.0008807,15.43368024,430.17616876402553,442.1789023869869,1 45048U 20006E   26066.49037196  .00125093  00000+0  27215-2 0  9996,2 45048  53.0348 248.7768 0008807 166.8198 193.3039 15.43368024336804
STARLINK-1156,45054,53.1597,0.0001265,15.30187648,474.38499681071335,476.11890421519274,1 45054U 20006L   26066.34098573  .00001903  00000+0  76383-4 0  9998,2 45054  53.1597 291.9038 0001265  92.2161 267.8985 15.30187648336186
STARLINK-1159,45057,53.0447,0.0002941,15.81152106,325.20940305222484,329.15347135698903,1 45057U 20006P   26066.66668981  .00174259  00000+0  85739-3 0  9991,2 45057  53.0447 244.9458 0002941 139.1536 192.5967 15.81152106  5886
STARLINK-1166,45060,53.0522,0.000517,15.44870672,428.2373876153579,435.2788191522568,1 45060U 20006S   26066.63660799  .00079653  00000+0  16612-2 0  9996,2 45060  53.0522 282.4687 0005170 137.0893 223.0517 15.44870672336348
STARLINK-1169,45061,53.1596,0.0001365,15.30194901,474.2948095208485,476.1657787921522,1 45061U 20006T   26066.63490464  .00001666  00000+0  68376-4 0  9992,2 45061  53.1596 290.5379 0001365  92.2305 267.8852 15.30194901336236
STARLINK-1171,45062,53.046,0.0001244,15.6010963,386.4984936275405,388.1817443347436,1 45062U 20006U   26066.66668981  .01166116  00000+0  12695-1 0  9990,2 45062  53.0460 259.3198 0001244  95.1068 295.9784 15.60109630  5835
STARLINK-1133,45064,53.1585,0.0001235,15.3019606,474.38044314092986,476.0732240078223,1 45064U 20006W   26066.57537299  .00005022  00000+0  18158-3 0  9998,2 45064  53.1585 267.6194 0001235  86.9030 273.2112 15.30196060336551
STARLINK-1167,45071,53.1595,0.0001143,15.29360401,476.9394826899934,478.5067323105677,1 45071U 20006AD  26066.53679978  .00000705  00000+0  36749-4 0  9993,2 45071  53.1595 267.8394 0001143  86.6591 273.4541 15.29360401336548
STARLINK-1168,45072,53.1605,0.0001188,15.29344692,476.955573310649,478.5845368269338,1 45072U 20006AE  26066.54660369  .00000760  00000+0  38669-4 0  9993,2 45072  53.1605 267.8546 0001188  86.4831 273.6305 15.29344692336548
STARLINK-1172,45074,53.1589,0.0001569,15.30186147,474.181134862828,476.33172972188004,1 45074U 20006AG  26066.55219699  .00002473  00000+0  95647-4 0  9994,2 45074  53.1589 267.7516 0001569  83.2589 276.8590 15.30186147336547
STARLINK-1153,45080,53.1589,3.66e-05,15.29360222,477.472717951664,477.97456695069286,1 45080U 20006AN  26066.25980877  .00000877  00000+0  42703-4 0  9992,2 45080  53.1589 269.0396 0000366 120.1989 239.9048 15.29360222336504
STARLINK-1151,45081,53.0536,8.07e-05,15.64953112,372.8287650960274,373.9184589088045,1 45081U 20006AP  26065.89032408  .00061951  00000+0  62117-3 0  9990,2 45081  53.0536 253.5280 0000807  58.0578 302.0515 15.64953112336684
STARLINK-1185,45087,53.159,0.0001328,15.30171134,474.39112284626117,476.2113960479701,1 45087U 20006AV  26066.00008102  .00060883  00000+0  20528-2 0  9996,2 45087  53.1590 254.9028 0001328  81.4423  81.2592 15.30171134  5812
STARLINK-1183,45088,53.1595,0.0001195,15.30195193,474.4104450049663,476.04839957989407,1 45088U 20006AW  26066.53209971  .00005607  00000+0  20130-3 0  9995,2 45088  53.1595 252.6031 0001195  88.5915 271.5223 15.30195193336759
STARLINK-1152,45096,53.0405,0.0005119,15.3816406,448.04237036204177,455.03459211973677,1 45096U 20006BE  26066.64902764  .00072711  00000+0  18978-2 0  9992,2 45096  53.0405 216.1092 0005119 190.4763 169.6134 15.38164060337276
STARLINK-1184,45098,53.0536,0.0005787,15.1006694,531.9944551494873,539.9968722944795,1 45098U 20006BG  26066.54846370  .00032452  00000+0  19794-2 0  9998,2 45098  53.0536 255.0881 0005787 129.2248 230.9257 15.10066940336714
STARLINK-1193,45100,53.0529,0.0001405,15.55104314,400.8968303046013,402.8020064881712,1 45100U 20006BJ  26066.46550137  .00140982  00000+0  20283-2 0  9999,2 45100  53.0529 241.1897 0001405   3.2398 356.8621 15.55104314336904
